start=new Date('2022-03-25T00:00:00.000Z').valueOf();
sats=[{"SITE":"AFETR","APOAPSIS":"548.201","NORAD_CAT_ID":"46047","MEAN_ANOMALY":"292.1521","DECAY_DATE":null,"TIME_SYSTEM":"UTC","REF_FRAME":"TEME","BSTAR":"0.00010957000000","MEAN_ELEMENT_THEORY":"SGP4","OBJECT_ID":"2020-055W","GP_ID":"199618954","FILE":"3373054","MEAN_MOTION_DDOT":"0.0000000000000","REV_AT_EPOCH":"9110","TLE_LINE2":"2 46047  53.0524 127.3010 0001425  67.9619 292.1521 15.06399651 91104","TLE_LINE1":"1 46047U 20055W   22083.83904640  .00001351  00000-0  10957-3 0  9997","EPOCH":"2022-03-24T20:08:13.608960","ELEMENT_SET_NO":"999","OBJECT_NAME":"STARLINK-1524","RCS_SIZE":"LARGE","MEAN_MOTION_DOT":"0.00001351","SEMIMAJOR_AXIS":"6925.350","CENTER_NAME":"EARTH","PERIOD":"95.592","RA_OF_ASC_NODE":"127.3010","PERIAPSIS":"546.228","OBJECT_TYPE":"PAYLOAD","ECCENTRICITY":"0.00014250","CLASSIFICATION_TYPE":"U","EPHEMERIS_TYPE":"0","COUNTRY_CODE":"US","LAUNCH_DATE":"2020-08-07","INCLINATION":"53.0524","MEAN_MOTION":"15.06399651","ARG_OF_PERICENTER":"67.9619"},{"SEMIMAJOR_AXIS":"6925.358","CENTER_NAME":"EARTH","RCS_SIZE":"LARGE","MEAN_MOTION_DOT":"0.00001166","OBJECT_NAME":"STARLINK-1527","MEAN_MOTION":"15.06397003","INCLINATION":"53.0550","ARG_OF_PERICENTER":"58.2344","COUNTRY_CODE":"US","EPHEMERIS_TYPE":"0","LAUNCH_DATE":"2020-08-07","CLASSIFICATION_TYPE":"U","PERIOD":"95.592","RA_OF_ASC_NODE":"127.0156","PERIAPSIS":"546.125","OBJECT_TYPE":"PAYLOAD","ECCENTRICITY":"0.00015850","REF_FRAME":"TEME","MEAN_ELEMENT_THEORY":"SGP4","OBJECT_ID":"2020-055X","BSTAR":"0.00009720000000","TIME_SYSTEM":"UTC","DECAY_DATE":null,"NORAD_CAT_ID":"46048","MEAN_ANOMALY":"301.8799","SITE":"AFETR","APOAPSIS":"548.320","ELEMENT_SET_NO":"999","TLE_LINE1":"1 46048U 20055X   22083.90171295  .00001166  00000-0  97200-4 0  9999","TLE_LINE2":"2 46048  53.0550 127.0156 0001585  58.2344 301.8799 15.06397003 91099","EPOCH":"2022-03-24T21:38:27.998880","MEAN_MOTION_DDOT":"0.0000000000000","REV_AT_EPOCH":"9109","GP_ID":"199617702","FILE":"3373054"},{"SEMIMAJOR_AXIS":"6925.350","CENTER_NAME":"EARTH","RCS_SIZE":"LARGE","MEAN_MOTION_DOT":"0.00001638","OBJECT_NAME":"STARLINK-1530","MEAN_MOTION":"15.06399508","INCLINATION":"53.0534","ARG_OF_PERICENTER":"55.6891","COUNTRY_CODE":"US","EPHEMERIS_TYPE":"0","LAUNCH_DATE":"2020-08-07","CLASSIFICATION_TYPE":"U","RA_OF_ASC_NODE":"127.3323","PERIOD":"95.592","ECCENTRICITY":"0.00017140","OBJECT_TYPE":"PAYLOAD","PERIAPSIS":"546.028","REF_FRAME":"TEME","OBJECT_ID":"2020-055Y","MEAN_ELEMENT_THEORY":"SGP4","BSTAR":"0.00012883000000","TIME_SYSTEM":"UTC","DECAY_DATE":null,"NORAD_CAT_ID":"46049","MEAN_ANOMALY":"304.4260","SITE":"AFETR","APOAPSIS":"548.402","ELEMENT_SET_NO":"999","TLE_LINE1":"1 46049U 20055Y   22083.83167621  .00001638  00000-0  12883-3 0  9997","TLE_LINE2":"2 46049  53.0534 127.3323 0001714  55.6891 304.4260 15.06399508 91110","EPOCH":"2022-03-24T19:57:36.824544","MEAN_MOTION_DDOT":"0.0000000000000","REV_AT_EPOCH":"9111","GP_ID":"199618452","FILE":"3373054"},{"REF_FRAME":"TEME","BSTAR":"0.00009147700000","OBJECT_ID":"2020-055AA","MEAN_ELEMENT_THEORY":"SGP4","DECAY_DATE":null,"TIME_SYSTEM":"UTC","NORAD_CAT_ID":"46051","MEAN_ANOMALY":"291.4352","APOAPSIS":"548.316","SITE":"AFETR","ELEMENT_SET_NO":"999","TLE_LINE2":"2 46051  53.0536 128.6494 0001598  68.6807 291.4352 15.06401506 90555","TLE_LINE1":"1 46051U 20055AA  22083.53679754  .00001081  00000-0  91477-4 0  9991","EPOCH":"2022-03-24T12:52:59.307456","MEAN_MOTION_DDOT":"0.0000000000000","REV_AT_EPOCH":"9055","GP_ID":"199585869","FILE":"3372519","SEMIMAJOR_AXIS":"6925.344","CENTER_NAME":"EARTH","MEAN_MOTION_DOT":"0.00001081","RCS_SIZE":"LARGE","OBJECT_NAME":"STARLINK-1540","INCLINATION":"53.0536","MEAN_MOTION":"15.06401506","ARG_OF_PERICENTER":"68.6807","EPHEMERIS_TYPE":"0","COUNTRY_CODE":"US","LAUNCH_DATE":"2020-08-07","CLASSIFICATION_TYPE":"U","RA_OF_ASC_NODE":"128.6494","PERIOD":"95.592","PERIAPSIS":"546.102","OBJECT_TYPE":"PAYLOAD","ECCENTRICITY":"0.00015980"},{"BSTAR":"0.00027541000000","MEAN_ELEMENT_THEORY":"SGP4","OBJECT_ID":"2020-055AB","REF_FRAME":"TEME","DECAY_DATE":null,"TIME_SYSTEM":"UTC","MEAN_ANOMALY":"292.1467","NORAD_CAT_ID":"46052","APOAPSIS":"548.269","SITE":"AFETR","ELEMENT_SET_NO":"999","EPOCH":"2022-03-24T20:29:27.335904","TLE_LINE2":"2 46052  53.0524 127.2169 0001560  67.9688 292.1467 15.06408117 91084","TLE_LINE1":"1 46052U 20055AB  22083.85378861  .00003824  00000-0  27541-3 0  9999","REV_AT_EPOCH":"9108","MEAN_MOTION_DDOT":"0.0000000000000","FILE":"3373054","GP_ID":"199619454","CENTER_NAME":"EARTH","SEMIMAJOR_AXIS":"6925.324","RCS_SIZE":"LARGE","MEAN_MOTION_DOT":"0.00003824","OBJECT_NAME":"STARLINK-1541","ARG_OF_PERICENTER":"67.9688","INCLINATION":"53.0524","MEAN_MOTION":"15.06408117","LAUNCH_DATE":"2020-08-07","EPHEMERIS_TYPE":"0","COUNTRY_CODE":"US","CLASSIFICATION_TYPE":"U","PERIAPSIS":"546.108","OBJECT_TYPE":"PAYLOAD","ECCENTRICITY":"0.00015600","RA_OF_ASC_NODE":"127.2169","PERIOD":"95.592"},{"DECAY_DATE":null,"TIME_SYSTEM":"UTC","BSTAR":"0.00014477000000","OBJECT_ID":"2020-055AC","MEAN_ELEMENT_THEORY":"SGP4","REF_FRAME":"TEME","APOAPSIS":"548.394","SITE":"AFETR","MEAN_ANOMALY":"296.1655","NORAD_CAT_ID":"46053","EPOCH":"2022-03-24T12:37:04.956384","TLE_LINE2":"2 46053  53.0543 128.6895 0001700  63.9509 296.1655 15.06399052 90541","TLE_LINE1":"1 46053U 20055AC  22083.52575181  .00001875  00000-0  14477-3 0  9996","ELEMENT_SET_NO":"999","FILE":"3372524","GP_ID":"199585960","REV_AT_EPOCH":"9054","MEAN_MOTION_DDOT":"0.0000000000000","CENTER_NAME":"EARTH","SEMIMAJOR_AXIS":"6925.351","OBJECT_NAME":"STARLINK-1543","MEAN_MOTION_DOT":"0.00001875","RCS_SIZE":"LARGE","LAUNCH_DATE":"2020-08-07","COUNTRY_CODE":"US","EPHEMERIS_TYPE":"0","ARG_OF_PERICENTER":"63.9509","INCLINATION":"53.0543","MEAN_MOTION":"15.06399052","OBJECT_TYPE":"PAYLOAD","PERIAPSIS":"546.039","ECCENTRICITY":"0.00017000","PERIOD":"95.592","RA_OF_ASC_NODE":"128.6895","CLASSIFICATION_TYPE":"U"},{"RCS_SIZE":"LARGE","MEAN_MOTION_DOT":"-0.00000574","OBJECT_NAME":"STARLINK-1548","SEMIMAJOR_AXIS":"6925.346","CENTER_NAME":"EARTH","CLASSIFICATION_TYPE":"U","RA_OF_ASC_NODE":"128.6640","PERIOD":"95.592","OBJECT_TYPE":"PAYLOAD","PERIAPSIS":"546.078","ECCENTRICITY":"0.00016360","INCLINATION":"53.0549","MEAN_MOTION":"15.06400957","ARG_OF_PERICENTER":"61.0716","EPHEMERIS_TYPE":"0","COUNTRY_CODE":"US","LAUNCH_DATE":"2020-08-07","NORAD_CAT_ID":"46054","MEAN_ANOMALY":"299.0437","APOAPSIS":"548.344","SITE":"AFETR","REF_FRAME":"TEME","BSTAR":"-0.00001961100000","OBJECT_ID":"2020-055AD","MEAN_ELEMENT_THEORY":"SGP4","DECAY_DATE":null,"TIME_SYSTEM":"UTC","MEAN_MOTION_DDOT":"0.0000000000000","REV_AT_EPOCH":"9106","GP_ID":"199572675","FILE":"3372185","ELEMENT_SET_NO":"999","TLE_LINE2":"2 46054  53.0549 128.6640 0001636  61.0716 299.0437 15.06400957 91068","TLE_LINE1":"1 46054U 20055AD  22083.53311993 -.00000574  00000-0 -19611-4 0  9990","EPOCH":"2022-03-24T12:47:41.561952"},{"MEAN_MOTION":"15.06399960","INCLINATION":"53.0546","ARG_OF_PERICENTER":"66.3060","COUNTRY_CODE":"US","EPHEMERIS_TYPE":"0","LAUNCH_DATE":"2020-08-07","CLASSIFICATION_TYPE":"U","PERIOD":"95.592","RA_OF_ASC_NODE":"127.2565","ECCENTRICITY":"0.00016380","OBJECT_TYPE":"PAYLOAD","PERIAPSIS":"546.079","SEMIMAJOR_AXIS":"6925.349","CENTER_NAME":"EARTH","MEAN_MOTION_DOT":"0.00001325","RCS_SIZE":"LARGE","OBJECT_NAME":"STARLINK-1554","ELEMENT_SET_NO":"999","TLE_LINE1":"1 46055U 20055AE  22083.85010235  .00001325  00000-0  10783-3 0  9994","TLE_LINE2":"2 46055  53.0546 127.2565 0001638  66.3060 293.8101 15.06399960 91116","EPOCH":"2022-03-24T20:24:08.843040","MEAN_MOTION_DDOT":"0.0000000000000","REV_AT_EPOCH":"9111","GP_ID":"199619204","FILE":"3373054","REF_FRAME":"TEME","OBJECT_ID":"2020-055AE","MEAN_ELEMENT_THEORY":"SGP4","BSTAR":"0.00010783000000","TIME_SYSTEM":"UTC","DECAY_DATE":null,"NORAD_CAT_ID":"46055","MEAN_ANOMALY":"293.8101","APOAPSIS":"548.348","SITE":"AFETR"},{"TIME_SYSTEM":"UTC","DECAY_DATE":null,"REF_FRAME":"TEME","MEAN_ELEMENT_THEORY":"SGP4","OBJECT_ID":"2020-055AF","BSTAR":"0.00017096000000","SITE":"AFETR","APOAPSIS":"548.484","NORAD_CAT_ID":"46056","MEAN_ANOMALY":"311.4750","TLE_LINE1":"1 46056U 20055AF  22083.80587312  .00002266  00000-0  17096-3 0  9994","TLE_LINE2":"2 46056  53.0534 127.4400 0001842  48.6397 311.4750 15.06401760 91116","EPOCH":"2022-03-24T19:20:27.437568","ELEMENT_SET_NO":"999","GP_ID":"199618955","FILE":"3373054","MEAN_MOTION_DDOT":"0.0000000000000","REV_AT_EPOCH":"9111","SEMIMAJOR_AXIS":"6925.343","CENTER_NAME":"EARTH","OBJECT_NAME":"STARLINK-1561","MEAN_MOTION_DOT":"0.00002266","RCS_SIZE":"LARGE","COUNTRY_CODE":"US","EPHEMERIS_TYPE":"0","LAUNCH_DATE":"2020-08-07","MEAN_MOTION":"15.06401760","INCLINATION":"53.0534","ARG_OF_PERICENTER":"48.6397","RA_OF_ASC_NODE":"127.4400","PERIOD":"95.592","OBJECT_TYPE":"PAYLOAD","PERIAPSIS":"545.933","ECCENTRICITY":"0.00018420","CLASSIFICATION_TYPE":"U"},{"INCLINATION":"53.0541","MEAN_MOTION":"15.06403958","ARG_OF_PERICENTER":"65.4270","COUNTRY_CODE":"US","EPHEMERIS_TYPE":"0","LAUNCH_DATE":"2020-08-07","CLASSIFICATION_TYPE":"U","RA_OF_ASC_NODE":"127.3819","PERIOD":"95.592","OBJECT_TYPE":"PAYLOAD","ECCENTRICITY":"0.00014000","PERIAPSIS":"546.232","SEMIMAJOR_AXIS":"6925.336","CENTER_NAME":"EARTH","MEAN_MOTION_DOT":"0.00001383","RCS_SIZE":"LARGE","OBJECT_NAME":"STARLINK-1564","ELEMENT_SET_NO":"999","TLE_LINE2":"2 46058  53.0541 127.3819 0001400  65.4270 294.6865 15.06403958 91105","TLE_LINE1":"1 46058U 20055AH  22083.81692450  .00001383  00000-0  11169-3 0  9991","EPOCH":"2022-03-24T19:36:22.276800","MEAN_MOTION_DDOT":"0.0000000000000","REV_AT_EPOCH":"9110","GP_ID":"199617703","FILE":"3373054","REF_FRAME":"TEME","BSTAR":"0.00011169000000","OBJECT_ID":"2020-055AH","MEAN_ELEMENT_THEORY":"SGP4","DECAY_DATE":null,"TIME_SYSTEM":"UTC","NORAD_CAT_ID":"46058","MEAN_ANOMALY":"294.6865","SITE":"AFETR","APOAPSIS":"548.171"}];
